{"type": "FeatureCollection", "features": [ {"type": "Feature", "properties": {"norad_id": 39122, "name": "EUTELSAT 117 WEST A", "group": "eutelsat", "lat": 0.039293769114968936, "lon": 104.50332292093535, "alt_km": 35797.0706972605, "timestamp": "2025-12-17T09:00:16.816253+00:00", "meta": {"OBJECT_NAME": "EUTELSAT 117 WEST A", "OBJECT_ID": "2013-012A", "EPOCH": "2025-12-16T14:30:45.698976", "MEAN_MOTION": 1.002726, "ECCENTRICITY": 0.00027465, "INCLINATION": 0.0237, "RA_OF_ASC_NODE": 37.6058, "ARG_OF_PERICENTER": 232.2559, "MEAN_ANOMALY": 276.52, "EPHEMERIS_TYPE": 0, "CLASSIFICATION_TYPE": "U", "NORAD_CAT_ID": 39122, "ELEMENT_SET_NO": 999, "REV_AT_EPOCH": 4660, "BSTAR": 0, "MEAN_MOTION_DOT": 1.1e-07, "MEAN_MOTION_DDOT": 0}, "tle": {"line1": "1 39122U 13012A   25350.60469559  .00000011  00000+0  00000+0 0  9993", "line2": "2 39122   0.0237  37.6058 0002746 232.2559 276.5200  1.00272600 46603"}}, "geometry": {"type": "Point", "coordinates": [104.50332292093535, 0.039293769114968936]}}, {"type": "Feature", "properties": {"norad_id": 39163, "name": "EUTELSAT 7B", "group": "eutelsat", "lat": -0.0775672276083469, "lon": -131.72608716362953, "alt_km": 35787.061939249914, "timestamp": "2025-12-17T09:00:16.816279+00:00", "meta": {"OBJECT_NAME": "EUTELSAT 7B", "OBJECT_ID": "2013-022A", "EPOCH": "2025-12-16T20:14:22.189632", "MEAN_MOTION": 1.00269554, "ECCENTRICITY": 0.00042447, "INCLINATION": 0.0653, "RA_OF_ASC_NODE": 351.8031, "ARG_OF_PERICENTER": 327.9598, "MEAN_ANOMALY": 76.574, "EPHEMERIS_TYPE": 0, "CLASSIFICATION_TYPE": "U", "NORAD_CAT_ID": 39163, "ELEMENT_SET_NO": 999, "REV_AT_EPOCH": 4611, "BSTAR": 0, "MEAN_MOTION_DOT": 7.2e-07, "MEAN_MOTION_DDOT": 0}, "tle": {"line1": "1 39163U 13022A   25350.84331238  .00000072  00000+0  00000+0 0  9994", "line2": "2 39163   0.0653 351.8031 0004244 327.9598  76.5740  1.00269554 46119"}}, "geometry": {"type": "Point", "coordinates": [-131.72608716362953, -0.0775672276083469]}}, {"type": "Feature", "properties": {"norad_id": 39612, "name": "EXPRESS-AT1", "group": "eutelsat", "lat": -0.029395827321858862, "lon": -82.68596420905092, "alt_km": 35788.829659480994, "timestamp": "2025-12-17T09:00:16.816305+00:00", "meta": {"OBJECT_NAME": "EXPRESS-AT1", "OBJECT_ID": "2014-010A", "EPOCH": "2025-12-17T03:19:12.583776", "MEAN_MOTION": 1.00270022, "ECCENTRICITY": 5.83e-05, "INCLINATION": 0.017, "RA_OF_ASC_NODE": 314.4393, "ARG_OF_PERICENTER": 165.9171, "MEAN_ANOMALY": 71.4676, "EPHEMERIS_TYPE": 0, "CLASSIFICATION_TYPE": "U", "NORAD_CAT_ID": 39612, "ELEMENT_SET_NO": 999, "REV_AT_EPOCH": 4299, "BSTAR": 0, "MEAN_MOTION_DOT": 1.03e-06, "MEAN_MOTION_DDOT": 0}, "tle": {"line1": "1 39612U 14010A   25351.13834009  .00000103  00000+0  00000+0 0  9993", "line2": "2 39612   0.0170 314.4393 0000583 165.9171  71.4676  1.00270022 42993"}}, "geometry": {"type": "Point", "coordinates": [-82.68596420905092, -0.029395827321858862]}}, {"type": "Feature", "properties": {"norad_id": 39613, "name": "EXPRESS-AT2", "group": "eutelsat", "lat": 0.023061782267306694, "lon": 1.1811573882767379, "alt_km": 35783.026036708114, "timestamp": "2025-12-17T09:00:16.816321+00:00", "meta": {"OBJECT_NAME": "EXPRESS-AT2", "OBJECT_ID": "2014-010B", "EPOCH": "2025-12-16T20:52:11.070048", "MEAN_MOTION": 1.0027289, "ECCENTRICITY": 0.0001211, "INCLINATION": 0.0165, "RA_OF_ASC_NODE": 313.4468, "ARG_OF_PERICENTER": 351.2679, "MEAN_ANOMALY": 233.9428, "EPHEMERIS_TYPE": 0, "CLASSIFICATION_TYPE": "U", "NORAD_CAT_ID": 39613, "ELEMENT_SET_NO": 999, "REV_AT_EPOCH": 4267, "BSTAR": 0, "MEAN_MOTION_DOT": -2.57e-06, "MEAN_MOTION_DDOT": 0}, "tle": {"line1": "1 39613U 14010B   25350.86957257 -.00000257  00000+0  00000+0 0  9995", "line2": "2 39613   0.0165 313.4468 0001211 351.2679 233.9428  1.00272890 42672"}}, "geometry": {"type": "Point", "coordinates": [1.1811573882767379, 0.023061782267306694]}}, {"type": "Feature", "properties": {"norad_id": 39773, "name": "EUTELSAT 3B", "group": "eutelsat", "lat": -0.06545597864260858, "lon": -135.6075976428812, "alt_km": 35768.08385659258, "timestamp": "2025-12-17T09:00:16.816334+00:00", "meta": {"OBJECT_NAME": "EUTELSAT 3B", "OBJECT_ID": "2014-030A", "EPOCH": "2025-12-16T18:30:31.468320", "MEAN_MOTION": 1.00271819, "ECCENTRICITY": 0.00042855, "INCLINATION": 0.0604, "RA_OF_ASC_NODE": 358.1537, "ARG_OF_PERICENTER": 233.4794, "MEAN_ANOMALY": 134.7434, "EPHEMERIS_TYPE": 0, "CLASSIFICATION_TYPE": "U", "NORAD_CAT_ID": 39773, "ELEMENT_SET_NO": 999, "REV_AT_EPOCH": 4223, "BSTAR": 0, "MEAN_MOTION_DOT": 4.4e-07, "MEAN_MOTION_DDOT": 0}, "tle": {"line1": "1 39773U 14030A   25350.77119755  .00000044  00000+0  00000+0 0  9990", "line2": "2 39773   0.0604 358.1537 0004285 233.4794 134.7434  1.00271819 42230"}}, "geometry": {"type": "Point", "coordinates": [-135.6075976428812, -0.06545597864260858]}}, {"type": "Feature", "properties": {"norad_id": 40425, "name": "EUTELSAT 115 WEST B", "group": "eutelsat", "lat": -0.010016493061148773, "lon": 106.40416429480479, "alt_km": 35786.873993250054, "timestamp": "2025-12-17T09:00:16.816346+00:00", "meta": {"OBJECT_NAME": "EUTELSAT 115 WEST B", "OBJECT_ID": "2015-010B", "EPOCH": "2025-12-16T10:53:20.776416", "MEAN_MOTION": 1.00270606, "ECCENTRICITY": 1.284e-05, "INCLINATION": 0.012, "RA_OF_ASC_NODE": 152.6665, "ARG_OF_PERICENTER": 108.4071, "MEAN_ANOMALY": 232.705, "EPHEMERIS_TYPE": 0, "CLASSIFICATION_TYPE": "U", "NORAD_CAT_ID": 40425, "ELEMENT_SET_NO": 999, "REV_AT_EPOCH": 3956, "BSTAR": 0, "MEAN_MOTION_DOT": -1e-08, "MEAN_MOTION_DDOT": 0}, "tle": {"line1": "1 40425U 15010B   25350.45371269 -.00000001  00000+0  00000+0 0  9994", "line2": "2 40425   0.0120 152.6665 0000128 108.4071 232.7050  1.00270606 39567"}}, "geometry": {"type": "Point", "coordinates": [106.40416429480479, -0.010016493061148773]}}, {"type": "Feature", "properties": {"norad_id": 40875, "name": "EUTELSAT 8 WEST B", "group": "eutelsat", "lat": -0.06450212582563442, "lon": -146.7157031843563, "alt_km": 35775.19825954429, "timestamp": "2025-12-17T09:00:16.816358+00:00", "meta": {"OBJECT_NAME": "EUTELSAT 8 WEST B", "OBJECT_ID": "2015-039B", "EPOCH": "2025-12-16T16:44:34.113120", "MEAN_MOTION": 1.00271868, "ECCENTRICITY": 0.00043212, "INCLINATION": 0.0643, "RA_OF_ASC_NODE": 349.1191, "ARG_OF_PERICENTER": 277.8464, "MEAN_ANOMALY": 61.775, "EPHEMERIS_TYPE": 0, "CLASSIFICATION_TYPE": "U", "NORAD_CAT_ID": 40875, "ELEMENT_SET_NO": 999, "REV_AT_EPOCH": 3782, "BSTAR": 0, "MEAN_MOTION_DOT": -4.1e-07, "MEAN_MOTION_DDOT": 0}, "tle": {"line1": "1 40875U 15039B   25350.69761705 -.00000041  00000+0  00000+0 0  9992", "line2": "2 40875   0.0643 349.1191 0004321 277.8464  61.7750  1.00271868 37824"}}, "geometry": {"type": "Point", "coordinates": [-146.7157031843563, -0.06450212582563442]}}, {"type": "Feature", "properties": {"norad_id": 41310, "name": "EUTELSAT 9B", "group": "eutelsat", "lat": -0.005289830915861609, "lon": -129.73589416468863, "alt_km": 35772.11123836914, "timestamp": "2025-12-17T09:00:16.816370+00:00", "meta": {"OBJECT_NAME": "EUTELSAT 9B", "OBJECT_ID": "2016-005A", "EPOCH": "2025-12-16T18:32:08.812608", "MEAN_MOTION": 1.00271598, "ECCENTRICITY": 0.00044998, "INCLINATION": 0.0545, "RA_OF_ASC_NODE": 69.0864, "ARG_OF_PERICENTER": 204.1365, "MEAN_ANOMALY": 99.4609, "EPHEMERIS_TYPE": 0, "CLASSIFICATION_TYPE": "U", "NORAD_CAT_ID": 41310, "ELEMENT_SET_NO": 999, "REV_AT_EPOCH": 3628, "BSTAR": 0, "MEAN_MOTION_DOT": 8.6e-07, "MEAN_MOTION_DDOT": 0}, "tle": {"line1": "1 41310U 16005A   25350.77232422  .00000086  00000+0  00000+0 0  9997", "line2": "2 41310   0.0545  69.0864 0004499 204.1365  99.4609  1.00271598 36284"}}, "geometry": {"type": "Point", "coordinates": [-129.73589416468863, -0.005289830915861609]}}, {"type": "Feature", "properties": {"norad_id": 41382, "name": "EUTELSAT 65 WEST A", "group": "eutelsat", "lat": -0.011109582693139611, "lon": 156.07705836847362, "alt_km": 35791.36591190929, "timestamp": "2025-12-17T09:00:16.816386+00:00", "meta": {"OBJECT_NAME": "EUTELSAT 65 WEST A", "OBJECT_ID": "2016-014A", "EPOCH": "2025-12-16T21:07:12.729216", "MEAN_MOTION": 1.00270405, "ECCENTRICITY": 0.00023358, "INCLINATION": 0.058, "RA_OF_ASC_NODE": 324.3219, "ARG_OF_PERICENTER": 311.2085, "MEAN_ANOMALY": 61.8298, "EPHEMERIS_TYPE": 0, "CLASSIFICATION_TYPE": "U", "NORAD_CAT_ID": 41382, "ELEMENT_SET_NO": 999, "REV_AT_EPOCH": 3570, "BSTAR": 0, "MEAN_MOTION_DOT": -2.52e-06, "MEAN_MOTION_DDOT": 0}, "tle": {"line1": "1 41382U 16014A   25350.88000844 -.00000252  00000+0  00000+0 0  9995", "line2": "2 41382   0.0580 324.3219 0002335 311.2085  61.8298  1.00270405 35708"}}, "geometry": {"type": "Point", "coordinates": [156.07705836847362, -0.011109582693139611]}}, {"type": "Feature", "properties": {"norad_id": 41589, "name": "EUTELSAT 117 WEST B", "group": "eutelsat", "lat": 0.012163983187438733, "lon": 104.31433659956384, "alt_km": 35786.61771817724, "timestamp": "2025-12-17T09:00:16.816398+00:00", "meta": {"OBJECT_NAME": "EUTELSAT 117 WEST B", "OBJECT_ID": "2016-038B", "EPOCH": "2025-12-16T07:41:38.671008", "MEAN_MOTION": 1.00271538, "ECCENTRICITY": 1.358e-05, "INCLINATION": 0.0424, "RA_OF_ASC_NODE": 167.2106, "ARG_OF_PERICENTER": 90.3228, "MEAN_ANOMALY": 186.0956, "EPHEMERIS_TYPE": 0, "CLASSIFICATION_TYPE": "U", "NORAD_CAT_ID": 41589, "ELEMENT_SET_NO": 999, "REV_AT_EPOCH": 3482, "BSTAR": 0, "MEAN_MOTION_DOT": 1.2e-07, "MEAN_MOTION_DDOT": 0}, "tle": {"line1": "1 41589U 16038B   25350.32058647  .00000012  00000+0  00000+0 0  9996", "line2": "2 41589   0.0424 167.2106 0000135  90.3228 186.0956  1.00271538 34824"}}, "geometry": {"type": "Point", "coordinates": [104.31433659956384, 0.012163983187438733]}}]}